{"spkid": "20482467", "covariance": {"epoch": "2457272.5", "elements": [{"label": "e", "name": "e", "sigma": 1.20147508175375e-07, "title": "eccentricity", "value": ".6207690565970332", "units": null}, {"label": "q", "units": "au", "value": ".9515793415820591", "title": "perihelion distance", "sigma": 3.02415481858447e-07, "name": "q"}, {"label": "tp", "sigma": 3.77746984954713e-05, "name": "tp", "units": "TDB", "value": "2457732.812358978395", "title": "time of perihelion passage"}, {"label": "node", "sigma": 7.67966172415308e-05, "name": "om", "value": "61.90026021245753", "title": "longitude of the ascending node", "units": "deg"}, {"label": "peri", "units": "deg", "title": "argument of perihelion", "value": "314.5582847416911", "sigma": 8.01599172467817e-05, "name": "w"}, {"label": "i", "title": "inclination", "value": "10.13996958850295", "units": "deg", "sigma": 3.36178913774984e-05, "name": "i"}], "data": [["1.443542372075177E-14", "-3.632982764573367E-14", "3.674567005222399E-12", "-1.65434079285406E-13", "2.723479834644791E-12", "-4.281901854463816E-13"], ["-3.632982764573367E-14", "9.145512366767683E-14", "-9.294895594461533E-12", "4.192632193628454E-13", "-6.880981656252486E-12", "1.080321532802561E-12"], ["3.674567005222399E-12", "-9.294895594461533E-12", "1.426927846423759E-9", "-1.175850456716762E-10", "9.808981984195989E-10", "-1.345430434229095E-10"], ["-1.65434079285406E-13", "4.192632193628454E-13", "-1.175850456716762E-10", "5.897720419742189E-9", "-5.850904627392842E-9", "2.095197897111966E-9"], ["2.723479834644791E-12", "-6.880981656252486E-12", "9.808981984195989E-10", "-5.850904627392842E-9", "6.425612333010887E-9", "-2.1535050266422E-9"], ["-4.281901854463816E-13", "1.080321532802561E-12", "-1.345430434229095E-10", "2.095197897111966E-9", "-2.1535050266422E-9", "1.130162620669281E-9"]], "labels": ["e", "q", "tp", "node", "peri", "i"]}, "elements": [{"units": null, "value": ".6197731319147396", "title": "eccentricity", "name": "e", "sigma": "1.1847E-7", "label": "e"}, {"label": "a", "name": "a", "sigma": "1.1757E-8", "units": "au", "value": "2.510587799401958", "title": "semi-major axis"}, {"name": "q", "sigma": "2.9725E-7", "value": ".9545929360196725", "title": "perihelion distance", "units": "au", "label": "q"}, {"label": "i", "name": "i", "sigma": "3.3635E-5", "units": "deg", "value": "10.138064425812", "title": "inclination; angle with respect to x-y ecliptic plane"}, {"sigma": "7.6678E-5", "name": "om", "title": "longitude of the ascending node", "value": "61.82534738313041", "units": "deg", "label": "node"}, {"label": "peri", "title": "argument of perihelion", "value": "314.5622282900184", "units": "deg", "name": "w", "sigma": "8.0089E-5"}, {"label": "M", "sigma": "1.0411E-5", "name": "ma", "units": "deg", "title": "mean anomaly", "value": "138.8106799901808"}, {"title": "time of perihelion passage", "value": "2460640.249918017264", "units": "TDB", "sigma": "4.04E-5", "name": "tp", "label": "tp"}, {"title": "sidereal orbital period", "value": "1452.986395052974", "units": "d", "sigma": "1.0206E-5", "name": "per", "label": "period"}, {"name": "n", "sigma": "1.7404E-9", "units": "deg/d", "title": "mean motion", "value": ".2477655683671249", "label": "n"}, {"label": "Q", "name": "ad", "sigma": "1.9043E-8", "value": "4.066582662784243", "title": "aphelion distance", "units": "au"}], "epoch": "2461200.5"}